[
  {
    "name": "KUIPER-00503",
    "noradId": "68884",
    "line1": "1 68884U 26095W   26191.49966229  .00001816  00000+0  26722-3 0  9999",
    "line2": "2 68884  51.8998 145.0585 0000472 150.8611 209.2377 14.79912659 11105"
  },
  {
    "name": "KUIPER-00504",
    "noradId": "68885",
    "line1": "1 68885U 26095X   26191.32275373  .00001842  00000+0  27051-3 0  9990",
    "line2": "2 68885  51.9003 153.3510 0000714  62.5123 297.5912 14.79938027 10976"
  },
  {
    "name": "KUIPER-00505",
    "noradId": "68886",
    "line1": "1 68886U 26095Y   26190.96215042  .00002044  00000+0  29711-3 0  9997",
    "line2": "2 68886  51.8832 144.9503 0000727  88.7639 271.3407 14.79917336 11059"
  },
  {
    "name": "KUIPER-00507",
    "noradId": "68887",
    "line1": "1 68887U 26095Z   26191.83335647 -.00010890  00000+0 -96599-3 0  9997",
    "line2": "2 68887  51.8973 131.2476 0002919 102.0248 191.9080 14.94917923  4757"
  },
  {
    "name": "KUIPER-00511",
    "noradId": "68888",
    "line1": "1 68888U 26095AA  26191.83335647 -.01088261  00000+0 -40488-1 0  9990",
    "line2": "2 68888  51.8806 128.1181 0006169  32.5601  28.5802 15.29850053  5366"
  },
  {
    "name": "KUIPER-00512",
    "noradId": "68889",
    "line1": "1 68889U 26095AB  26190.92565499  .00001394  00000+0  21181-3 0  9990",
    "line2": "2 68889  51.9000 147.6093 0000733  93.3620 266.7426 14.79938376 11015"
  },
  {
    "name": "KUIPER-00519",
    "noradId": "68890",
    "line1": "1 68890U 26095AC  26191.83335647 -.00028341  00000+0 -35289-2 0  9999",
    "line2": "2 68890  51.9000 133.6724 0002226  79.6920  12.9230 14.81952119  4933"
  },
  {
    "name": "KUIPER-00521",
    "noradId": "68891",
    "line1": "1 68891U 26095AD  26191.83335647 -.00046432  00000+0 -29263-2 0  9996",
    "line2": "2 68891  51.8885 128.9919 0002178 113.5950 253.9690 15.08708310  3897"
  },
  {
    "name": "KUIPER-00524",
    "noradId": "68892",
    "line1": "1 68892U 26095AE  26191.83335647  .00018500  00000+0  26615-2 0  9998",
    "line2": "2 68892  51.9571 134.8025 0002125  92.2997 152.5466 14.76394457  5918"
  },
  {
    "name": "KUIPER-00370",
    "noradId": "68919",
    "line1": "1 68919U 26098A   26191.83335647 -.01145501  00000+0 -55486-1 0  9993",
    "line2": "2 68919  51.8758 316.5963 0011910 247.6929  28.2681 15.20741051  4257"
  },
  {
    "name": "KUIPER-00380",
    "noradId": "68920",
    "line1": "1 68920U 26098B   26191.65965896  .00007272  00000+0  26228-3 0  9993",
    "line2": "2 68920  51.8776 316.0281 0006431 251.0700 108.9586 15.29551756 10937"
  },
  {
    "name": "KUIPER-00386",
    "noradId": "68921",
    "line1": "1 68921U 26098C   26191.83335647 -.01492857  00000+0 -54775-1 0  9995",
    "line2": "2 68921  51.8768 313.4013 0001766 343.6833  64.5863 15.30821588  5095"
  },
  {
    "name": "KUIPER-00388",
    "noradId": "68922",
    "line1": "1 68922U 26098D   26191.83335647 -.00004820  00000+0 -45747-3 0  9995",
    "line2": "2 68922  51.8922 318.6746 0018956 231.6399   3.4353 14.90903331  5481"
  },
  {
    "name": "KUIPER-00405",
    "noradId": "68923",
    "line1": "1 68923U 26098E   26191.83335647  .00009803  00000+0  72883-3 0  9991",
    "line2": "2 68923  51.8880 317.1357 0009753 265.5532  43.5849 15.03524321  4114"
  },
  {
    "name": "KUIPER-00408",
    "noradId": "68924",
    "line1": "1 68924U 26098F   26191.66668980 -.00006048  00000+0 -21516-3 0  9999",
    "line2": "2 68924  51.8776 317.4777 0013474 243.9923 146.0221 15.26431512  5799"
  },
  {
    "name": "KUIPER-00409",
    "noradId": "68925",
    "line1": "1 68925U 26098G   26191.83335647  .00022161  00000+0  13902-2 0  9991",
    "line2": "2 68925  51.8878 315.4932 0003999 271.2913 135.9534 15.09227226  2784"
  },
  {
    "name": "KUIPER-00410",
    "noradId": "68926",
    "line1": "1 68926U 26098H   26190.87137490  .00007134  00000+0  28144-3 0  9999",
    "line2": "2 68926  51.8759 321.2009 0012879 236.2175 123.7581 15.26553464 10793"
  },
  {
    "name": "KUIPER-00412",
    "noradId": "68927",
    "line1": "1 68927U 26098J   26191.33008574  .00018389  00000+0  50002-3 0  9994",
    "line2": "2 68927  51.8795 315.3988 0003106 319.2620  40.8134 15.37588350 10915"
  },
  {
    "name": "KUIPER-00413",
    "noradId": "68928",
    "line1": "1 68928U 26098K   26191.83335647 -.00027208  00000+0 -16273-2 0  9997",
    "line2": "2 68928  51.8852 317.8839 0020103 249.4603  80.3264 15.10157178  5607"
  },
  {
    "name": "KUIPER-00414",
    "noradId": "68929",
    "line1": "1 68929U 26098L   26191.42100325 -.00000094  00000+0  16679-4 0  9991",
    "line2": "2 68929  51.8957 328.0175 0001274 256.1311 103.9510 14.79929054 10741"
  },
  {
    "name": "KUIPER-00415",
    "noradId": "68930",
    "line1": "1 68930U 26098M   26191.66128058  .00013712  00000+0  47184-3 0  9996",
    "line2": "2 68930  51.8798 316.0620 0008561 231.8267 128.1946 15.30313165 10935"
  },
  {
    "name": "KUIPER-00416",
    "noradId": "68931",
    "line1": "1 68931U 26098N   26190.93214149  .00020222  00000+0  54943-3 0  9998",
    "line2": "2 68931  51.8754 317.2129 0001553 314.7093  45.3767 15.37548473 10858"
  },
  {
    "name": "KUIPER-00420",
    "noradId": "68932",
    "line1": "1 68932U 26098P   26191.69401171  .00019373  00000+0  54261-3 0  9994",
    "line2": "2 68932  51.8771 314.0729 0003458 290.5924  69.4692 15.36628472 10962"
  },
  {
    "name": "KUIPER-00421",
    "noradId": "68933",
    "line1": "1 68933U 26098Q   26191.37276004  .00013633  00000+0  47308-3 0  9992",
    "line2": "2 68933  51.8755 317.1275 0007419 209.5335 150.5230 15.30051125 10893"
  },
  {
    "name": "KUIPER-00425",
    "noradId": "68934",
    "line1": "1 68934U 26098R   26191.83335647  .00045073  00000+0  19927-2 0  9991",
    "line2": "2 68934  51.8794 316.7805 0014258 236.5525 293.9446 15.21173264  5873"
  },
  {
    "name": "KUIPER-00430",
    "noradId": "68935",
    "line1": "1 68935U 26098S   26191.83335647 -.00009103  00000+0 -57418-3 0  9996",
    "line2": "2 68935  51.8892 317.4562 0018204 244.4056   5.7933 15.07377617  5448"
  },
  {
    "name": "KUIPER-00431",
    "noradId": "68936",
    "line1": "1 68936U 26098T   26191.83335647  .00009615  00000+0  93805-3 0  9993",
    "line2": "2 68936  51.8928 318.9811 0014952 217.8815 301.5018 14.92925841  3692"
  },
  {
    "name": "KUIPER-00432",
    "noradId": "68937",
    "line1": "1 68937U 26098U   26191.78753166 -.00051467  00000+0 -18720-2 0  9994",
    "line2": "2 68937  51.8762 316.1109 0011150 239.7260 120.2620 15.27681947 10949"
  },
  {
    "name": "KUIPER-00434",
    "noradId": "68938",
    "line1": "1 68938U 26098V   26191.83335647 -.01108175  00000+0 -66784-1 0  9993",
    "line2": "2 68938  51.8858 315.4244 0002967 197.9218 322.6422 15.13171248  5598"
  },
  {
    "name": "KUIPER-00436",
    "noradId": "68939",
    "line1": "1 68939U 26098W   26191.83335647 -.00507896  00000+0 -28875-1 0  9995",
    "line2": "2 68939  51.8827 315.8182 0008834 240.5545  74.4368 15.14460806  4386"
  },
  {
    "name": "KUIPER-00438",
    "noradId": "68940",
    "line1": "1 68940U 26098X   26191.83335647 -.01084435  00000+0 -50903-1 0  9994",
    "line2": "2 68940  51.8807 314.7356 0005759 271.2371 174.6346 15.22198498  5281"
  },
  {
    "name": "KUIPER-00439",
    "noradId": "68941",
    "line1": "1 68941U 26098Y   26191.83335647 -.01136898  00000+0 -48409-1 0  9994",
    "line2": "2 68941  51.8795 314.9038 0004911 255.8845 131.7502 15.25602220  3563"
  },
  {
    "name": "KUIPER-00440",
    "noradId": "68942",
    "line1": "1 68942U 26098Z   26190.94651651  .00019702  00000+0  64972-3 0  9998",
    "line2": "2 68942  51.8809 318.7879 0002984 272.0820  87.9822 15.31433861 10832"
  },
  {
    "name": "KUIPER-00442",
    "noradId": "68943",
    "line1": "1 68943U 26098AA  26191.36457804  .00018248  00000+0  54857-3 0  9995",
    "line2": "2 68943  51.8780 316.3541 0003654 240.9214 119.1406 15.34445611 10900"
  },
  {
    "name": "KUIPER-00446",
    "noradId": "68944",
    "line1": "1 68944U 26098AB  26191.37814363  .00010951  00000+0  35931-3 0  9999",
    "line2": "2 68944  51.8751 316.4149 0004865 218.1742 141.8898 15.32100999 10904"
  },
  {
    "name": "KUIPER-00451",
    "noradId": "68945",
    "line1": "1 68945U 26098AC  26191.83335647 -.00856853  00000+0 -81391-1 0  9994",
    "line2": "2 68945  51.9055 318.8616 0008815 238.0308 281.9943 14.95967322  5760"
  },
  {
    "name": "KUIPER-00452",
    "noradId": "68946",
    "line1": "1 68946U 26098AD  26191.69427742  .00018682  00000+0  53332-3 0  9991",
    "line2": "2 68946  51.8747 314.0565 0002723 250.4750 109.5943 15.36059402 10960"
  },
  {
    "name": "KUIPER-00453",
    "noradId": "68947",
    "line1": "1 68947U 26098AE  26190.35590253  .00019638  00000+0  53618-3 0  9991",
    "line2": "2 68947  51.8777 320.0974 0003168 298.8372  61.2296 15.37414647 10765"
  },
  {
    "name": "KUIPER-00454",
    "noradId": "68948",
    "line1": "1 68948U 26098AF  26191.83335647 -.00004262  00000+0 -44481-3 0  9997",
    "line2": "2 68948  51.8977 319.7939 0012511 209.8269 284.7068 14.86971472  5291"
  },
  {
    "name": "KUIPER-00455",
    "noradId": "68949",
    "line1": "1 68949U 26098AG  26191.83335647  .00005735  00000+0  54504-3 0  9999",
    "line2": "2 68949  51.8923 319.0411 0019703 224.0335 331.0378 14.94630669  5844"
  },
  {
    "name": "KUIPER-00458",
    "noradId": "68950",
    "line1": "1 68950U 26098AH  26190.51172779  .00017488  00000+0  48981-3 0  9990",
    "line2": "2 68950  51.8775 319.6469 0003239 274.9301  85.1315 15.36703315 10787"
  },
  {
    "name": "KUIPER-00282",
    "noradId": "69267",
    "line1": "1 69267U 26118A   26191.83335647 -.01405140  00000+0 -62718-1 0  9997",
    "line2": "2 69267  51.8682 299.9536 0011458 276.0606 136.6913 15.24111680  5509"
  },
  {
    "name": "KUIPER-00383",
    "noradId": "69268",
    "line1": "1 69268U 26118B   26191.80234852  .00015884  00000+0  50456-3 0  9998",
    "line2": "2 69268  51.8603 299.8920 0010602 275.4263  84.5512 15.32754002  7600"
  }
]